[{"CCSDS_OMM_VERS":"2.0","COMMENT":"GENERATED VIA SPACE-TRACK.ORG API","CREATION_DATE":"2004-08-15T23:35:26","ORIGINATOR":"18 SPCS","OBJECT_NAME":"VOSTOK 2","OBJECT_ID":"1961-019A","CENTER_NAME":"EARTH","REF_FRAME":"TEME","TIME_SYSTEM":"UTC","MEAN_ELEMENT_THEORY":"SGP4","EPOCH":"1961-08-06T20:36:17.285759","MEAN_MOTION":"16.28592179","ECCENTRICITY":"0.00644370","INCLINATION":"64.8394","RA_OF_ASC_NODE":"77.9109","ARG_OF_PERICENTER":"79.6523","MEAN_ANOMALY":"280.7169","EPHEMERIS_TYPE":"0","CLASSIFICATION_TYPE":"U","NORAD_CAT_ID":"168","ELEMENT_SET_NO":"999","REV_AT_EPOCH":"10","BSTAR":"0.00000000000000","MEAN_MOTION_DOT":"-0.00718067","MEAN_MOTION_DDOT":"0.0000000000000","SEMIMAJOR_AXIS":"6574.467","PERIOD":"88.419","APOAPSIS":"238.695","PERIAPSIS":"153.968","OBJECT_TYPE":"PAYLOAD","RCS_SIZE":null,"COUNTRY_CODE":null,"LAUNCH_DATE":null,"SITE":null,"DECAY_DATE":"1961-08-07","FILE":"33907","GP_ID":"8674556","TLE_LINE0":"0 VOSTOK 2","TLE_LINE1":"1 00168U 61019  A 61218.85853340 -.00718067 +00000-0 +00000-0 0  9996","TLE_LINE2":"2 00168 064.8394 077.9109 0064437 079.6523 280.7169 16.28592179000104"},{"CCSDS_OMM_VERS":"2.0","COMMENT":"GENERATED VIA SPACE-TRACK.ORG API","CREATION_DATE":"2004-08-15T23:35:26","ORIGINATOR":"18 SPCS","OBJECT_NAME":"SL-3 R\/B","OBJECT_ID":"1961-019B","CENTER_NAME":"EARTH","REF_FRAME":"TEME","TIME_SYSTEM":"UTC","MEAN_ELEMENT_THEORY":"SGP4","EPOCH":"1961-08-08T00:37:02.863776","MEAN_MOTION":"16.32453772","ECCENTRICITY":"0.00088870","INCLINATION":"64.9111","RA_OF_ASC_NODE":"73.5519","ARG_OF_PERICENTER":"307.5918","MEAN_ANOMALY":"52.4478","EPHEMERIS_TYPE":"0","CLASSIFICATION_TYPE":"U","NORAD_CAT_ID":"169","ELEMENT_SET_NO":"999","REV_AT_EPOCH":"29","BSTAR":"0.00000000000000","MEAN_MOTION_DOT":"0.02945771","MEAN_MOTION_DDOT":"0.0000000000000","SEMIMAJOR_AXIS":"6564.094","PERIOD":"88.210","APOAPSIS":"191.793","PERIAPSIS":"180.126","OBJECT_TYPE":"ROCKET BODY","RCS_SIZE":null,"COUNTRY_CODE":null,"LAUNCH_DATE":null,"SITE":null,"DECAY_DATE":"1961-08-09","FILE":"33907","GP_ID":"8674558","TLE_LINE0":"0 SL-3 R\/B","TLE_LINE1":"1 00169U 61019  B 61220.02572759  .02945771 +00000-0 +00000-0 0  9996","TLE_LINE2":"2 00169 064.9111 073.5519 0008887 307.5918 052.4478 16.32453772000295"},{"CCSDS_OMM_VERS":"2.0","COMMENT":"GENERATED VIA SPACE-TRACK.ORG API","CREATION_DATE":"2004-08-15T23:35:26","ORIGINATOR":"18 SPCS","OBJECT_NAME":"THOR ABLESTAR R\/B","OBJECT_ID":"1960-003A","CENTER_NAME":"EARTH","REF_FRAME":"TEME","TIME_SYSTEM":"UTC","MEAN_ELEMENT_THEORY":"SGP4","EPOCH":"1961-08-16T14:24:53.774496","MEAN_MOTION":"16.29358349","ECCENTRICITY":"0.00000000","INCLINATION":"51.2500","RA_OF_ASC_NODE":"356.4892","ARG_OF_PERICENTER":"331.9473","MEAN_ANOMALY":"28.0526","EPHEMERIS_TYPE":"0","CLASSIFICATION_TYPE":"U","NORAD_CAT_ID":"30","ELEMENT_SET_NO":"999","REV_AT_EPOCH":"7590","BSTAR":"0.00000000000000","MEAN_MOTION_DOT":"0.02125614","MEAN_MOTION_DDOT":"0.0000000000000","SEMIMAJOR_AXIS":"6572.405","PERIOD":"88.378","APOAPSIS":"194.270","PERIAPSIS":"194.270","OBJECT_TYPE":"ROCKET BODY","RCS_SIZE":null,"COUNTRY_CODE":null,"LAUNCH_DATE":null,"SITE":null,"DECAY_DATE":"1961-08-18","FILE":"33907","GP_ID":"8672722","TLE_LINE0":"0 THOR ABLESTAR R\/B","TLE_LINE1":"1 00030U 60003  A 61228.60062239  .02125614 +00000-0 +00000-0 0  9990","TLE_LINE2":"2 00030 051.2500 356.4892 0000000 331.9473 028.0526 16.29358349075909"},{"CCSDS_OMM_VERS":"2.0","COMMENT":"GENERATED VIA SPACE-TRACK.ORG API","CREATION_DATE":"2004-08-15T23:35:26","ORIGINATOR":"18 SPCS","OBJECT_NAME":"EXPLORER 13","OBJECT_ID":"1961-022A","CENTER_NAME":"EARTH","REF_FRAME":"TEME","TIME_SYSTEM":"UTC","MEAN_ELEMENT_THEORY":"SGP4","EPOCH":"1961-08-26T18:13:30.042335","MEAN_MOTION":"14.93380756","ECCENTRICITY":"0.03199120","INCLINATION":"36.4200","RA_OF_ASC_NODE":"79.3906","ARG_OF_PERICENTER":"275.1356","MEAN_ANOMALY":"86.6609","EPHEMERIS_TYPE":"0","CLASSIFICATION_TYPE":"U","NORAD_CAT_ID":"180","ELEMENT_SET_NO":"999","REV_AT_EPOCH":"15","BSTAR":"0.00000000000000","MEAN_MOTION_DOT":"0.00000000","MEAN_MOTION_DDOT":"0.0000000000000","SEMIMAJOR_AXIS":"6965.544","PERIOD":"96.425","APOAPSIS":"810.245","PERIAPSIS":"364.573","OBJECT_TYPE":"PAYLOAD","RCS_SIZE":null,"COUNTRY_CODE":null,"LAUNCH_DATE":null,"SITE":null,"DECAY_DATE":"1961-08-28","FILE":"33907","GP_ID":"8674587","TLE_LINE0":"0 EXPLORER 13","TLE_LINE1":"1 00180U 61022  A 61238.75937549  .00000000 +00000-0 +00000-0 0  9999","TLE_LINE2":"2 00180 036.4200 079.3906 0319912 275.1356 086.6609 14.93380756000151"},{"CCSDS_OMM_VERS":"2.0","COMMENT":"GENERATED VIA SPACE-TRACK.ORG API","CREATION_DATE":"2004-08-15T23:35:26","ORIGINATOR":"18 SPCS","OBJECT_NAME":"ATLAS AGENA B R\/B","OBJECT_ID":"1961-021B","CENTER_NAME":"EARTH","REF_FRAME":"TEME","TIME_SYSTEM":"UTC","MEAN_ELEMENT_THEORY":"SGP4","EPOCH":"1961-08-27T04:06:53.495999","MEAN_MOTION":"15.95288715","ECCENTRICITY":"0.01670230","INCLINATION":"32.8838","RA_OF_ASC_NODE":"253.4261","ARG_OF_PERICENTER":"236.8764","MEAN_ANOMALY":"123.9075","EPHEMERIS_TYPE":"0","CLASSIFICATION_TYPE":"U","NORAD_CAT_ID":"174","ELEMENT_SET_NO":"999","REV_AT_EPOCH":"60","BSTAR":"0.00000000000000","MEAN_MOTION_DOT":"0.01967683","MEAN_MOTION_DDOT":"0.0000000000000","SEMIMAJOR_AXIS":"6665.651","PERIOD":"90.265","APOAPSIS":"398.848","PERIAPSIS":"176.184","OBJECT_TYPE":"ROCKET BODY","RCS_SIZE":null,"COUNTRY_CODE":null,"LAUNCH_DATE":null,"SITE":null,"DECAY_DATE":"1961-09-03","FILE":"33907","GP_ID":"8674569","TLE_LINE0":"0 ATLAS AGENA B R\/B","TLE_LINE1":"1 00174U 61021  B 61239.17145250  .01967683 +00000-0 +00000-0 0  9998","TLE_LINE2":"2 00174 032.8838 253.4261 0167023 236.8764 123.9075 15.95288715000608"},{"CCSDS_OMM_VERS":"2.0","COMMENT":"GENERATED VIA SPACE-TRACK.ORG API","CREATION_DATE":"2004-08-15T23:35:26","ORIGINATOR":"18 SPCS","OBJECT_NAME":"DISCOVERER 23 DEB","OBJECT_ID":"1961-011C","CENTER_NAME":"EARTH","REF_FRAME":"TEME","TIME_SYSTEM":"UTC","MEAN_ELEMENT_THEORY":"SGP4","EPOCH":"1961-09-02T15:48:19.842336","MEAN_MOTION":"15.80427697","ECCENTRICITY":"0.02150790","INCLINATION":"81.8681","RA_OF_ASC_NODE":"45.6978","ARG_OF_PERICENTER":"39.0670","MEAN_ANOMALY":"321.7165","EPHEMERIS_TYPE":"0","CLASSIFICATION_TYPE":"U","NORAD_CAT_ID":"106","ELEMENT_SET_NO":"999","REV_AT_EPOCH":"2170","BSTAR":"0.00000000000000","MEAN_MOTION_DOT":"0.01934985","MEAN_MOTION_DDOT":"0.0000000000000","SEMIMAJOR_AXIS":"6707.371","PERIOD":"91.114","APOAPSIS":"473.498","PERIAPSIS":"184.975","OBJECT_TYPE":"DEBRIS","RCS_SIZE":null,"COUNTRY_CODE":null,"LAUNCH_DATE":null,"SITE":null,"DECAY_DATE":"1961-09-10","FILE":"33907","GP_ID":"8674186","TLE_LINE0":"0 DISCOVERER 23 DEB","TLE_LINE1":"1 00106U 61011  C 61245.65856299  .01934985 +00000-0 +00000-0 0  9993","TLE_LINE2":"2 00106 081.8681 045.6978 0215079 039.0670 321.7165 15.80427697021703"},{"CCSDS_OMM_VERS":"2.0","COMMENT":"GENERATED VIA SPACE-TRACK.ORG API","CREATION_DATE":"2004-08-15T23:35:26","ORIGINATOR":"18 SPCS","OBJECT_NAME":"DISCOVERER 29","OBJECT_ID":"1961-023A","CENTER_NAME":"EARTH","REF_FRAME":"TEME","TIME_SYSTEM":"UTC","MEAN_ELEMENT_THEORY":"SGP4","EPOCH":"1961-09-06T03:32:20.975136","MEAN_MOTION":"15.87064218","ECCENTRICITY":"0.02683120","INCLINATION":"82.0800","RA_OF_ASC_NODE":"337.4358","ARG_OF_PERICENTER":"67.4059","MEAN_ANOMALY":"294.0307","EPHEMERIS_TYPE":"0","CLASSIFICATION_TYPE":"U","NORAD_CAT_ID":"181","ELEMENT_SET_NO":"999","REV_AT_EPOCH":"100","BSTAR":"0.00000000000000","MEAN_MOTION_DOT":"0.02933314","MEAN_MOTION_DDOT":"0.0000000000000","SEMIMAJOR_AXIS":"6688.659","PERIOD":"90.733","APOAPSIS":"489.989","PERIAPSIS":"131.060","OBJECT_TYPE":"PAYLOAD","RCS_SIZE":null,"COUNTRY_CODE":null,"LAUNCH_DATE":null,"SITE":null,"DECAY_DATE":"1961-09-10","FILE":"33907","GP_ID":"8674590","TLE_LINE0":"0 DISCOVERER 29","TLE_LINE1":"1 00181U 61023  A 61249.14746499  .02933314 +00000-0 +00000-0 0  9993","TLE_LINE2":"2 00181 082.0800 337.4358 0268312 067.4059 294.0307 15.87064218001004"},{"CCSDS_OMM_VERS":"2.0","COMMENT":"GENERATED VIA SPACE-TRACK.ORG API","CREATION_DATE":"2004-08-15T23:35:26","ORIGINATOR":"18 SPCS","OBJECT_NAME":"ATLAS D R\/B","OBJECT_ID":"1961-025B","CENTER_NAME":"EARTH","REF_FRAME":"TEME","TIME_SYSTEM":"UTC","MEAN_ELEMENT_THEORY":"SGP4","EPOCH":"1961-09-13T15:20:07.336319","MEAN_MOTION":"16.46285565","ECCENTRICITY":"0.00000000","INCLINATION":"32.5825","RA_OF_ASC_NODE":"65.4303","ARG_OF_PERICENTER":"263.2197","MEAN_ANOMALY":"96.7802","EPHEMERIS_TYPE":"0","CLASSIFICATION_TYPE":"U","NORAD_CAT_ID":"184","ELEMENT_SET_NO":"999","REV_AT_EPOCH":"1","BSTAR":"0.00000000000000","MEAN_MOTION_DOT":"-0.05499469","MEAN_MOTION_DDOT":"0.0000000000000","SEMIMAJOR_AXIS":"6527.276","PERIOD":"87.469","APOAPSIS":"149.141","PERIAPSIS":"149.141","OBJECT_TYPE":"ROCKET BODY","RCS_SIZE":null,"COUNTRY_CODE":null,"LAUNCH_DATE":null,"SITE":null,"DECAY_DATE":"1961-09-13","FILE":"33907","GP_ID":"8674609","TLE_LINE0":"0 ATLAS D R\/B","TLE_LINE1":"1 00184U 61025  B 61256.63897380 -.05499469 +00000-0 +00000-0 0  9998","TLE_LINE2":"2 00184 032.5825 065.4303 0000000 263.2197 096.7802 16.46285565000012"}]